start=new Date('2021-12-02T00:00:00.000Z').valueOf();
sats=[{"EPHEMERIS_TYPE":"0","LAUNCH_DATE":"2021-03-24","TIME_SYSTEM":"UTC","CLASSIFICATION_TYPE":"U","CENTER_NAME":"EARTH","INCLINATION":"53.0559","NORAD_CAT_ID":"48034","MEAN_MOTION":"15.06407916","REV_AT_EPOCH":"3913","RCS_SIZE":"LARGE","PERIOD":"95.592","FILE":"3229325","DECAY_DATE":null,"SEMIMAJOR_AXIS":"6925.324","PERIAPSIS":"545.798","GP_ID":"190865998","OBJECT_ID":"2021-024BK","OBJECT_TYPE":"PAYLOAD","MEAN_ELEMENT_THEORY":"SGP4","APOAPSIS":"548.581","OBJECT_NAME":"STARLINK-2288","MEAN_MOTION_DOT":"0.00001835","EPOCH":"2021-12-01T18:07:04.166112","TLE_LINE2":"2 48034  53.0559 129.9543 0002009  91.5078 268.6141 15.06407916 39135","REF_FRAME":"TEME","MEAN_MOTION_DDOT":"0.0000000000000","MEAN_ANOMALY":"268.6141","TLE_LINE1":"1 48034U 21024BK  21335.75490933  .00001835  00000-0  14205-3 0  9994","COUNTRY_CODE":"US","SITE":"AFETR","ELEMENT_SET_NO":"999","RA_OF_ASC_NODE":"129.9543","BSTAR":"0.00014205000000","ARG_OF_PERICENTER":"91.5078","ECCENTRICITY":"0.00020090"},{"INCLINATION":"53.0546","MEAN_MOTION":"15.85869525","NORAD_CAT_ID":"48035","EPHEMERIS_TYPE":"0","TIME_SYSTEM":"UTC","CLASSIFICATION_TYPE":"U","LAUNCH_DATE":"2021-03-24","CENTER_NAME":"EARTH","OBJECT_ID":"2021-024BL","MEAN_ELEMENT_THEORY":"SGP4","APOAPSIS":"317.822","OBJECT_TYPE":"PAYLOAD","OBJECT_NAME":"STARLINK-2287","FILE":"3228938","DECAY_DATE":null,"SEMIMAJOR_AXIS":"6692.014","PERIOD":"90.802","REV_AT_EPOCH":"4050","RCS_SIZE":"LARGE","PERIAPSIS":"309.937","GP_ID":"190833511","MEAN_MOTION_DDOT":"0.0000000000000","MEAN_ANOMALY":"121.2322","MEAN_MOTION_DOT":"0.00488088","EPOCH":"2021-12-01T14:00:01.000224","TLE_LINE2":"2 48035  53.0546  30.5331 0005891 281.6865 121.2322 15.85869525 40505","REF_FRAME":"TEME","BSTAR":"0.00184800000000","ECCENTRICITY":"0.00058910","ARG_OF_PERICENTER":"281.6865","COUNTRY_CODE":"US","TLE_LINE1":"1 48035U 21024BL  21335.58334491  .00488088  00000-0  18480-2 0  9999","SITE":"AFETR","ELEMENT_SET_NO":"999","RA_OF_ASC_NODE":"30.5331"},{"MEAN_MOTION_DOT":"0.00001175","TLE_LINE2":"2 48036  53.0548 131.4083 0001949  94.1007 266.0205 15.06406905 39618","EPOCH":"2021-12-01T10:19:58.795968","REF_FRAME":"TEME","MEAN_MOTION_DDOT":"0.0000000000000","MEAN_ANOMALY":"266.0205","TLE_LINE1":"1 48036U 21024BM  21335.43054162  .00001175  00000-0  97731-4 0  9994","COUNTRY_CODE":"US","SITE":"AFETR","ELEMENT_SET_NO":"999","RA_OF_ASC_NODE":"131.4083","BSTAR":"0.00009773100000","ARG_OF_PERICENTER":"94.1007","ECCENTRICITY":"0.00019490","EPHEMERIS_TYPE":"0","LAUNCH_DATE":"2021-03-24","TIME_SYSTEM":"UTC","CLASSIFICATION_TYPE":"U","CENTER_NAME":"EARTH","INCLINATION":"53.0548","MEAN_MOTION":"15.06406905","NORAD_CAT_ID":"48036","REV_AT_EPOCH":"3961","RCS_SIZE":"LARGE","DECAY_DATE":null,"FILE":"3229140","SEMIMAJOR_AXIS":"6925.327","PERIOD":"95.592","PERIAPSIS":"545.843","GP_ID":"190859959","OBJECT_ID":"2021-024BM","OBJECT_TYPE":"PAYLOAD","APOAPSIS":"548.542","MEAN_ELEMENT_THEORY":"SGP4","OBJECT_NAME":"STARLINK-2295"},{"OBJECT_TYPE":"PAYLOAD","MEAN_ELEMENT_THEORY":"SGP4","APOAPSIS":"549.371","OBJECT_NAME":"STARLINK-2048","OBJECT_ID":"2021-027A","PERIAPSIS":"545.094","GP_ID":"190860967","RCS_SIZE":"LARGE","REV_AT_EPOCH":"3845","DECAY_DATE":null,"FILE":"3229140","SEMIMAJOR_AXIS":"6925.368","PERIOD":"95.593","NORAD_CAT_ID":"48092","MEAN_MOTION":"15.06393765","INCLINATION":"53.0544","LAUNCH_DATE":"2021-04-07","TIME_SYSTEM":"UTC","CLASSIFICATION_TYPE":"U","CENTER_NAME":"EARTH","EPHEMERIS_TYPE":"0","ECCENTRICITY":"0.00030880","ARG_OF_PERICENTER":"57.3190","BSTAR":"-0.00018311000000","ELEMENT_SET_NO":"999","RA_OF_ASC_NODE":"256.1876","TLE_LINE1":"1 48092U 21027A   21335.47520425 -.00003008  00000-0 -18311-3 0  9998","COUNTRY_CODE":"US","SITE":"AFETR","MEAN_MOTION_DDOT":"0.0000000000000","MEAN_ANOMALY":"302.8097","TLE_LINE2":"2 48092  53.0544 256.1876 0003088  57.3190 302.8097 15.06393765 38459","EPOCH":"2021-12-01T11:24:17.647200","REF_FRAME":"TEME","MEAN_MOTION_DOT":"-0.00003008"},{"MEAN_MOTION_DDOT":"0.0000000000000","MEAN_ANOMALY":"303.7367","MEAN_MOTION_DOT":"0.00000234","EPOCH":"2021-12-01T09:05:37.100832","TLE_LINE2":"2 48093  53.0569 321.6393 0002004  56.3813 303.7367 15.06391748 37534","REF_FRAME":"TEME","BSTAR":"0.00003464600000","ARG_OF_PERICENTER":"56.3813","ECCENTRICITY":"0.00020040","TLE_LINE1":"1 48093U 21027B   21335.37890163  .00000234  00000-0  34646-4 0  9993","COUNTRY_CODE":"US","SITE":"AFETR","ELEMENT_SET_NO":"999","RA_OF_ASC_NODE":"321.6393","INCLINATION":"53.0569","NORAD_CAT_ID":"48093","MEAN_MOTION":"15.06391748","EPHEMERIS_TYPE":"0","LAUNCH_DATE":"2021-04-07","CLASSIFICATION_TYPE":"U","TIME_SYSTEM":"UTC","CENTER_NAME":"EARTH","OBJECT_ID":"2021-027B","OBJECT_TYPE":"PAYLOAD","APOAPSIS":"548.627","MEAN_ELEMENT_THEORY":"SGP4","OBJECT_NAME":"STARLINK-2404","RCS_SIZE":"LARGE","REV_AT_EPOCH":"3753","PERIOD":"95.593","FILE":"3229140","DECAY_DATE":null,"SEMIMAJOR_AXIS":"6925.374","PERIAPSIS":"545.851","GP_ID":"190860215"},{"INCLINATION":"53.0562","MEAN_MOTION":"15.06393496","NORAD_CAT_ID":"48094","EPHEMERIS_TYPE":"0","TIME_SYSTEM":"UTC","CLASSIFICATION_TYPE":"U","LAUNCH_DATE":"2021-04-07","CENTER_NAME":"EARTH","OBJECT_ID":"2021-027C","APOAPSIS":"548.449","MEAN_ELEMENT_THEORY":"SGP4","OBJECT_TYPE":"PAYLOAD","OBJECT_NAME":"STARLINK-2412","FILE":"3229140","PERIOD":"95.593","DECAY_DATE":null,"SEMIMAJOR_AXIS":"6925.368","RCS_SIZE":"LARGE","REV_AT_EPOCH":"3740","PERIAPSIS":"546.018","GP_ID":"190860465","MEAN_MOTION_DDOT":"0.0000000000000","MEAN_ANOMALY":"296.9500","MEAN_MOTION_DOT":"-0.00001133","EPOCH":"2021-12-01T09:58:43.843008","TLE_LINE2":"2 48094  53.0562 331.4753 0001755  63.1668 296.9500 15.06393496 37403","REF_FRAME":"TEME","BSTAR":"-0.00005720400000","ARG_OF_PERICENTER":"63.1668","ECCENTRICITY":"0.00017550","COUNTRY_CODE":"US","TLE_LINE1":"1 48094U 21027C   21335.41578522 -.00001133  00000-0 -57204-4 0  9997","SITE":"AFETR","ELEMENT_SET_NO":"999","RA_OF_ASC_NODE":"331.4753"},{"COUNTRY_CODE":"US","TLE_LINE1":"1 48095U 21027D   21335.29045644 -.00000175  00000-0  71414-5 0  9992","SITE":"AFETR","RA_OF_ASC_NODE":"332.0445","ELEMENT_SET_NO":"999","BSTAR":"0.00000714140000","ARG_OF_PERICENTER":"49.6581","ECCENTRICITY":"0.00017950","MEAN_MOTION_DOT":"-0.00000175","EPOCH":"2021-12-01T06:58:15.436416","TLE_LINE2":"2 48095  53.0562 332.0445 0001795  49.6581 310.4565 15.06400839 37397","REF_FRAME":"TEME","MEAN_MOTION_DDOT":"0.0000000000000","MEAN_ANOMALY":"310.4565","DECAY_DATE":null,"FILE":"3229140","SEMIMAJOR_AXIS":"6925.346","PERIOD":"95.592","REV_AT_EPOCH":"3739","RCS_SIZE":"LARGE","PERIAPSIS":"545.968","GP_ID":"190861216","OBJECT_ID":"2021-027D","MEAN_ELEMENT_THEORY":"SGP4","APOAPSIS":"548.454","OBJECT_TYPE":"PAYLOAD","OBJECT_NAME":"STARLINK-2414","EPHEMERIS_TYPE":"0","TIME_SYSTEM":"UTC","CLASSIFICATION_TYPE":"U","LAUNCH_DATE":"2021-04-07","CENTER_NAME":"EARTH","INCLINATION":"53.0562","MEAN_MOTION":"15.06400839","NORAD_CAT_ID":"48095"},{"BSTAR":"0.00007015300000","ARG_OF_PERICENTER":"59.9768","ECCENTRICITY":"0.00017840","SITE":"AFETR","COUNTRY_CODE":"US","TLE_LINE1":"1 48096U 21027E   21335.72908810  .00000764  00000-0  70153-4 0  9995","ELEMENT_SET_NO":"999","RA_OF_ASC_NODE":"330.0763","MEAN_ANOMALY":"300.1397","MEAN_MOTION_DDOT":"0.0000000000000","MEAN_MOTION_DOT":"0.00000764","REF_FRAME":"TEME","EPOCH":"2021-12-01T17:29:53.211840","TLE_LINE2":"2 48096  53.0559 330.0763 0001784  59.9768 300.1397 15.06402613 37047","OBJECT_ID":"2021-027E","OBJECT_NAME":"STARLINK-2417","MEAN_ELEMENT_THEORY":"SGP4","APOAPSIS":"548.441","OBJECT_TYPE":"PAYLOAD","DECAY_DATE":null,"FILE":"3229363","PERIOD":"95.592","SEMIMAJOR_AXIS":"6925.341","REV_AT_EPOCH":"3704","RCS_SIZE":"LARGE","GP_ID":"190867261","PERIAPSIS":"545.970","INCLINATION":"53.0559","NORAD_CAT_ID":"48096","MEAN_MOTION":"15.06402613","EPHEMERIS_TYPE":"0","CENTER_NAME":"EARTH","TIME_SYSTEM":"UTC","CLASSIFICATION_TYPE":"U","LAUNCH_DATE":"2021-04-07"},{"MEAN_MOTION_DOT":"0.00000466","REF_FRAME":"TEME","EPOCH":"2021-12-01T17:00:41.698080","TLE_LINE2":"2 48097  53.0565 310.1536 0002198  52.6865 307.4324 15.06399308 37327","MEAN_ANOMALY":"307.4324","MEAN_MOTION_DDOT":"0.0000000000000","SITE":"AFETR","COUNTRY_CODE":"US","TLE_LINE1":"1 48097U 21027F   21335.70881595  .00000466  00000-0  50168-4 0  9997","ELEMENT_SET_NO":"999","RA_OF_ASC_NODE":"310.1536","BSTAR":"0.00005016800000","ECCENTRICITY":"0.00021980","ARG_OF_PERICENTER":"52.6865","EPHEMERIS_TYPE":"0","CENTER_NAME":"EARTH","CLASSIFICATION_TYPE":"U","TIME_SYSTEM":"UTC","LAUNCH_DATE":"2021-04-07","INCLINATION":"53.0565","MEAN_MOTION":"15.06399308","NORAD_CAT_ID":"48097","SEMIMAJOR_AXIS":"6925.351","FILE":"3229296","DECAY_DATE":null,"PERIOD":"95.592","RCS_SIZE":"LARGE","REV_AT_EPOCH":"3732","GP_ID":"190865478","PERIAPSIS":"545.693","OBJECT_ID":"2021-027F","OBJECT_NAME":"STARLINK-2418","APOAPSIS":"548.738","MEAN_ELEMENT_THEORY":"SGP4","OBJECT_TYPE":"PAYLOAD"},{"BSTAR":"0.00062957000000","ARG_OF_PERICENTER":"58.7538","ECCENTRICITY":"0.00015810","SITE":"AFETR","COUNTRY_CODE":"US","TLE_LINE1":"1 48098U 21027G   21335.75206242  .00009126  00000-0  62957-3 0  9993","ELEMENT_SET_NO":"999","RA_OF_ASC_NODE":"319.9661","MEAN_ANOMALY":"301.3606","MEAN_MOTION_DDOT":"0.0000000000000","MEAN_MOTION_DOT":"0.00009126","REF_FRAME":"TEME","TLE_LINE2":"2 48098  53.0572 319.9661 0001581  58.7538 301.3606 15.06468883 37243","EPOCH":"2021-12-01T18:02:58.193088","OBJECT_ID":"2021-027G","OBJECT_NAME":"STARLINK-2421","APOAPSIS":"548.097","MEAN_ELEMENT_THEORY":"SGP4","OBJECT_TYPE":"PAYLOAD","PERIOD":"95.588","FILE":"3229219","DECAY_DATE":null,"SEMIMAJOR_AXIS":"6925.137","RCS_SIZE":"LARGE","REV_AT_EPOCH":"3724","GP_ID":"190863845","PERIAPSIS":"545.908","INCLINATION":"53.0572","NORAD_CAT_ID":"48098","MEAN_MOTION":"15.06468883","EPHEMERIS_TYPE":"0","CENTER_NAME":"EARTH","TIME_SYSTEM":"UTC","CLASSIFICATION_TYPE":"U","LAUNCH_DATE":"2021-04-07"}];
